CCSDS_OMM_VERS = 2.0
CREATION_DATE  = 
ORIGINATOR     = 

OBJECT_NAME    = SL-3 R/B
OBJECT_ID      = 1988-032B
CENTER_NAME    = EARTH
REF_FRAME      = TEME
TIME_SYSTEM    = UTC
MEAN_ELEMENT_THEORY = SGP/SGP4

EPOCH          = 2026-03-10T06:13:18.074208
MEAN_MOTION    = 15.19918694
ECCENTRICITY   = .00244646
INCLINATION    = 97.5196
RA_OF_ASC_NODE = 52.5081
ARG_OF_PERICENTER = 229.3517
MEAN_ANOMALY   = 130.5591

EPHEMERIS_TYPE = 0
CLASSIFICATION_TYPE = U
NORAD_CAT_ID   = 19046
ELEMENT_SET_NO = 999
REV_AT_EPOCH   = 5219
BSTAR          = .30423833E-3
MEAN_MOTION_DOT = .6519E-4
MEAN_MOTION_DDOT = 0

CCSDS_OMM_VERS = 2.0
CREATION_DATE  = 
ORIGINATOR     = 

OBJECT_NAME    = SL-16 R/B
OBJECT_ID      = 1988-039B
CENTER_NAME    = EARTH
REF_FRAME      = TEME
TIME_SYSTEM    = UTC
MEAN_ELEMENT_THEORY = SGP/SGP4

EPOCH          = 2026-03-10T06:17:30.358752
MEAN_MOTION    = 14.19615424
ECCENTRICITY   = .00228223
INCLINATION    = 71.0134
RA_OF_ASC_NODE = 67.3368
ARG_OF_PERICENTER = 333.5129
MEAN_ANOMALY   = 26.4828

EPHEMERIS_TYPE = 0
CLASSIFICATION_TYPE = U
NORAD_CAT_ID   = 19120
ELEMENT_SET_NO = 999
REV_AT_EPOCH   = 95846
BSTAR          = .2008763E-5
MEAN_MOTION_DOT = -.44E-6
MEAN_MOTION_DDOT = 0

CCSDS_OMM_VERS = 2.0
CREATION_DATE  = 
ORIGINATOR     = 

OBJECT_NAME    = COSMOS 1953
OBJECT_ID      = 1988-050A
CENTER_NAME    = EARTH
REF_FRAME      = TEME
TIME_SYSTEM    = UTC
MEAN_ELEMENT_THEORY = SGP/SGP4

EPOCH          = 2026-03-10T06:43:35.853312
MEAN_MOTION    = 15.28540132
ECCENTRICITY   = .00124761
INCLINATION    = 82.5103
RA_OF_ASC_NODE = 157.6532
ARG_OF_PERICENTER = 120.5410
MEAN_ANOMALY   = 239.7063

EPHEMERIS_TYPE = 0
CLASSIFICATION_TYPE = U
NORAD_CAT_ID   = 19210
ELEMENT_SET_NO = 999
REV_AT_EPOCH   = 3787
BSTAR          = .353061E-3
MEAN_MOTION_DOT = .9858E-4
MEAN_MOTION_DDOT = 0

CCSDS_OMM_VERS = 2.0
CREATION_DATE  = 
ORIGINATOR     = 

OBJECT_NAME    = SL-8 R/B
OBJECT_ID      = 1988-053B
CENTER_NAME    = EARTH
REF_FRAME      = TEME
TIME_SYSTEM    = UTC
MEAN_ELEMENT_THEORY = SGP/SGP4

EPOCH          = 2026-03-10T06:49:57.402624
MEAN_MOTION    = 14.38916161
ECCENTRICITY   = .00214416
INCLINATION    = 74.0459
RA_OF_ASC_NODE = 111.3696
ARG_OF_PERICENTER = 290.5618
MEAN_ANOMALY   = 143.3460

EPHEMERIS_TYPE = 0
CLASSIFICATION_TYPE = U
NORAD_CAT_ID   = 19257
ELEMENT_SET_NO = 999
REV_AT_EPOCH   = 97668
BSTAR          = .10237809E-3
MEAN_MOTION_DOT = .29E-5
MEAN_MOTION_DDOT = 0

CCSDS_OMM_VERS = 2.0
CREATION_DATE  = 
ORIGINATOR     = 

OBJECT_NAME    = COSMOS 1975
OBJECT_ID      = 1988-093A
CENTER_NAME    = EARTH
REF_FRAME      = TEME
TIME_SYSTEM    = UTC
MEAN_ELEMENT_THEORY = SGP/SGP4

EPOCH          = 2026-03-10T02:49:30.995040
MEAN_MOTION    = 15.28077885
ECCENTRICITY   = .00121366
INCLINATION    = 82.5180
RA_OF_ASC_NODE = 117.2554
ARG_OF_PERICENTER = 162.0670
MEAN_ANOMALY   = 198.1000

EPHEMERIS_TYPE = 0
CLASSIFICATION_TYPE = U
NORAD_CAT_ID   = 19573
ELEMENT_SET_NO = 999
REV_AT_EPOCH   = 1947
BSTAR          = .26509899E-3
MEAN_MOTION_DOT = .7305E-4
MEAN_MOTION_DDOT = 0

CCSDS_OMM_VERS = 2.0
CREATION_DATE  = 
ORIGINATOR     = 

OBJECT_NAME    = SL-14 R/B
OBJECT_ID      = 1988-093B
CENTER_NAME    = EARTH
REF_FRAME      = TEME
TIME_SYSTEM    = UTC
MEAN_ELEMENT_THEORY = SGP/SGP4

EPOCH          = 2026-03-09T23:59:24.302112
MEAN_MOTION    = 14.85656984
ECCENTRICITY   = .0021744
INCLINATION    = 82.5306
RA_OF_ASC_NODE = 41.7526
ARG_OF_PERICENTER = 40.5230
MEAN_ANOMALY   = 23.6778

EPHEMERIS_TYPE = 0
CLASSIFICATION_TYPE = U
NORAD_CAT_ID   = 19574
ELEMENT_SET_NO = 999
REV_AT_EPOCH   = 106
BSTAR          = .84678598E-4
MEAN_MOTION_DOT = .761E-5
MEAN_MOTION_DDOT = 0

CCSDS_OMM_VERS = 2.0
CREATION_DATE  = 
ORIGINATOR     = 

OBJECT_NAME    = SL-16 R/B
OBJECT_ID      = 1988-102B
CENTER_NAME    = EARTH
REF_FRAME      = TEME
TIME_SYSTEM    = UTC
MEAN_ELEMENT_THEORY = SGP/SGP4

EPOCH          = 2026-03-10T06:11:40.265952
MEAN_MOTION    = 14.16152424
ECCENTRICITY   = .00139908
INCLINATION    = 71.0001
RA_OF_ASC_NODE = 150.3016
ARG_OF_PERICENTER = 0.7941
MEAN_ANOMALY   = 359.3201

EPHEMERIS_TYPE = 0
CLASSIFICATION_TYPE = U
NORAD_CAT_ID   = 19650
ELEMENT_SET_NO = 999
REV_AT_EPOCH   = 92697
BSTAR          = .17925338E-3
MEAN_MOTION_DOT = .307E-5
MEAN_MOTION_DDOT = 0

CCSDS_OMM_VERS = 2.0
CREATION_DATE  = 
ORIGINATOR     = 

OBJECT_NAME    = INTERCOSMOS 24
OBJECT_ID      = 1989-080A
CENTER_NAME    = EARTH
REF_FRAME      = TEME
TIME_SYSTEM    = UTC
MEAN_ELEMENT_THEORY = SGP/SGP4

EPOCH          = 2026-03-10T02:53:10.345632
MEAN_MOTION    = 12.59558521
ECCENTRICITY   = .11866899
INCLINATION    = 82.6026
RA_OF_ASC_NODE = 104.1239
ARG_OF_PERICENTER = 291.8200
MEAN_ANOMALY   = 56.0884

EPHEMERIS_TYPE = 0
CLASSIFICATION_TYPE = U
NORAD_CAT_ID   = 20261
ELEMENT_SET_NO = 999
REV_AT_EPOCH   = 66685
BSTAR          = .25594495E-3
MEAN_MOTION_DOT = .859E-5
MEAN_MOTION_DDOT = 0

CCSDS_OMM_VERS = 2.0
CREATION_DATE  = 
ORIGINATOR     = 

OBJECT_NAME    = SL-14 R/B
OBJECT_ID      = 1989-080C
CENTER_NAME    = EARTH
REF_FRAME      = TEME
TIME_SYSTEM    = UTC
MEAN_ELEMENT_THEORY = SGP/SGP4

EPOCH          = 2026-03-10T06:37:27.199200
MEAN_MOTION    = 12.50494571
ECCENTRICITY   = .12305946
INCLINATION    = 82.5975
RA_OF_ASC_NODE = 172.8100
ARG_OF_PERICENTER = 183.4098
MEAN_ANOMALY   = 175.7992

EPHEMERIS_TYPE = 0
CLASSIFICATION_TYPE = U
NORAD_CAT_ID   = 20262
ELEMENT_SET_NO = 999
REV_AT_EPOCH   = 66022
BSTAR          = .21035295E-3
MEAN_MOTION_DOT = .714E-5
MEAN_MOTION_DDOT = 0

CCSDS_OMM_VERS = 2.0
CREATION_DATE  = 
ORIGINATOR     = 

OBJECT_NAME    = DELTA 1 R/B
OBJECT_ID      = 1989-089B
CENTER_NAME    = EARTH
REF_FRAME      = TEME
TIME_SYSTEM    = UTC
MEAN_ELEMENT_THEORY = SGP/SGP4

EPOCH          = 2026-03-10T02:29:17.003328
MEAN_MOTION    = 14.50663290
ECCENTRICITY   = .00704974
INCLINATION    = 97.0705
RA_OF_ASC_NODE = 276.4765
ARG_OF_PERICENTER = 120.6902
MEAN_ANOMALY   = 240.1268

EPHEMERIS_TYPE = 0
CLASSIFICATION_TYPE = U
NORAD_CAT_ID   = 20323
ELEMENT_SET_NO = 999
REV_AT_EPOCH   = 89579
BSTAR          = .10851149E-3
MEAN_MOTION_DOT = .405E-5
MEAN_MOTION_DDOT = 0

CCSDS_OMM_VERS = 2.0
CREATION_DATE  = 
ORIGINATOR     = 

OBJECT_NAME    = ARIANE 40 R/B
OBJECT_ID      = 1990-005H
CENTER_NAME    = EARTH
REF_FRAME      = TEME
TIME_SYSTEM    = UTC
MEAN_ELEMENT_THEORY = SGP/SGP4

EPOCH          = 2026-03-10T03:51:49.228416
MEAN_MOTION    = 14.39870850
ECCENTRICITY   = .00098846
INCLINATION    = 98.3083
RA_OF_ASC_NODE = 129.8085
ARG_OF_PERICENTER = 197.1358
MEAN_ANOMALY   = 162.9498

EPHEMERIS_TYPE = 0
CLASSIFICATION_TYPE = U
NORAD_CAT_ID   = 20443
ELEMENT_SET_NO = 999
REV_AT_EPOCH   = 89287
BSTAR          = .11795787E-3
MEAN_MOTION_DOT = .328E-5
MEAN_MOTION_DDOT = 0

CCSDS_OMM_VERS = 2.0
CREATION_DATE  = 
ORIGINATOR     = 

OBJECT_NAME    = DELTA 2 R/B(1)
OBJECT_ID      = 1990-008B
CENTER_NAME    = EARTH
REF_FRAME      = TEME
TIME_SYSTEM    = UTC
MEAN_ELEMENT_THEORY = SGP/SGP4

EPOCH          = 2026-03-10T06:32:53.465856
MEAN_MOTION    = 15.56077469
ECCENTRICITY   = .00852226
INCLINATION    = 35.6036
RA_OF_ASC_NODE = 171.0267
ARG_OF_PERICENTER = 264.1247
MEAN_ANOMALY   = 94.9769

EPHEMERIS_TYPE = 0
CLASSIFICATION_TYPE = U
NORAD_CAT_ID   = 20453
ELEMENT_SET_NO = 999
REV_AT_EPOCH   = 92622
BSTAR          = .86258678E-3
MEAN_MOTION_DOT = .74086E-3
MEAN_MOTION_DDOT = 0

